CUTE-1 (CO-55)          
1 27844U 03031E   24278.89163415  .00002307  00000+0  10328-2 0  9999
2 27844  98.6800 284.4224 0009625 179.3727 180.7465 14.23515840103392
CUBESAT XI-IV (CO-57)   
1 27848U 03031J   24279.01070623  .00001982  00000+0  90035-3 0  9998
2 27848  98.6828 284.7195 0009208 195.6028 164.4868 14.22921606103204
CUBESAT XI-V            
1 28895U 05043F   24279.17120263  .00009884  00000+0  16983-2 0  9997
2 28895  98.2176  55.3211 0015301  13.7393 346.4225 14.68777591 10822
CUTE-1.7+APD II (CO-65) 
1 32785U 08021C   24278.85306261  .00022560  00000+0  18592-2 0  9991
2 32785  97.7678 243.4833 0008536 336.3327  23.7502 14.99029839891963
AAUSAT-II               
1 32788U 08021F   24278.50148933  .00082556  00000+0  31272-2 0  9997
2 32788  97.6026 259.7174 0008180 120.1423 240.0627 15.26542671895041
CANX-2                  
1 32790U 08021H   24278.83645773  .00018754  00000+0  16218-2 0  9992
2 32790  97.7799 242.1131 0010569 339.8338  20.2465 14.97187701891768
SEEDS II (CO-66)        
1 32791U 08021J   24279.46488135  .00033067  00000+0  21549-2 0  9997
2 32791  97.7036 250.3516 0002538 327.8610  32.2463 15.07829967893197
SWISSCUBE               
1 35932U 09051B   24278.65778575  .00007037  00000+0  14819-2 0  9991
2 35932  98.4525 164.1099 0007061 352.8507   7.2590 14.59789316798528
BEESAT-1                
1 35933U 09051C   24278.68565509  .00006070  00000+0  12901-2 0  9992
2 35933  98.4455 164.8982 0005786   7.9470 352.1819 14.59426435798591
ITUPSAT1                
1 35935U 09051E   24278.64304390  .00005512  00000+0  12005-2 0  9994
2 35935  98.4553 164.5779 0008175  10.8650 349.2723 14.58329871798216
TISAT 1                 
1 36799U 10035E   24278.45167255  .00033592  00000+0  22914-2 0  9992
2 36799  98.0732 172.7822 0002711 188.2507 171.8675 15.06134853773688
AEROCUBE 4.5A           
1 38767U 12048K   24278.47929342  .00040518  00000+0  18242-2 0  9995
2 38767  64.6589 321.5709 0112295 342.2002  17.5199 15.15306859276999
AEROCUBE 4.5B           
1 38768U 12048L   24279.29254461  .00152474  00000+0  35497-2 0  9996
2 38768  64.6505 234.3621 0081291 329.3200  30.3193 15.38088699278273
STRAND-1                
1 39090U 13009E   24278.51811852  .00002212  00000+0  77050-3 0  9996
2 39090  98.3813 103.8215 0007827 289.0396  70.9943 14.36323868607959
BRITE-AUSTRIA           
1 39091U 13009F   24279.49269356  .00001529  00000+0  54099-3 0  9999
2 39091  98.3861 104.0453 0009290 293.5582  66.4628 14.35978728608101
NEE-01 PEGASO           
1 39151U 13018B   24279.27412598  .00014942  00000+0  16545-2 0  9996
2 39151  98.0481  37.6364 0014860  43.8851 316.3542 14.87349023618334
ESTCUBE 1               
1 39161U 13021C   24279.09958146  .00011094  00000+0  15609-2 0  9990
2 39161  97.8170 342.2231 0007920 227.7045 132.3495 14.77474940613358
POPACS 1                
1 39268U 13055D   24278.72650489  .00081108  23873-6  12080-2 0  9996
2 39268  80.9811  24.4600 0361314  97.5943 266.6468 15.05160919576933
POPACS 2                
1 39269U 13055E   24278.85572641  .00035738  00000+0  79263-3 0  9999
2 39269  80.9966 119.9153 0529916 347.3701  11.4626 14.62104410571595
POPACS 3                
1 39270U 13055F   24279.42930267  .00022507  00000+0  59907-3 0  9990
2 39270  81.0087 173.7259 0615582 137.7173 227.3220 14.40234534569511
ZACUBE-1 (TSHEPISOSAT)  
1 39417U 13066B   24278.83807634  .00018746  00000+0  18343-2 0  9998
2 39417  97.7468 232.5528 0049592 154.6195 205.7476 14.91423731587910
WNISAT-1                
1 39423U 13066H   24279.49318048  .00004061  00000+0  77159-3 0  9990
2 39423  97.6684 104.9153 0169132  23.2336 337.6394 14.55854178576693
TRITON-1                
1 39427U 13066M   24279.50758700  .00013794  00000+0  18622-2 0  9991
2 39427  97.8363 194.0073 0102358  86.5235 274.7676 14.75568633582669
DELFI-N3XT              
1 39428U 13066N   24279.51333958  .00028766  00000+0  34075-2 0  9992
2 39428  97.8325 195.0993 0098850  90.1542 271.0998 14.81008337582588
GOMX-1                  
1 39430U 13066Q   24279.51793046  .00010358  00000+0  16809-2 0  9996
2 39430  97.7126 147.1991 0135899 261.7896  96.7876 14.65323374579191
CUBEBUG-2 (LO-74)       
1 39440U 13066AA  24278.80015335  .00019502  00000+0  21814-2 0  9998
2 39440  97.8207 220.2623 0065002 275.8543  83.5265 14.85401311584597
NEE-02 KRYSAOR          
1 39441U 13066AB  24278.78097738  .00013885  00000+0  17002-2 0  9995
2 39441  97.8290 215.6510 0070818 300.3366  59.0855 14.81501548584155
FUNCUBE-1 (AO-73)       
1 39444U 13066AE  24278.83404755  .00027889  00000+0  24944-2 0  9997
2 39444  97.7319 235.9992 0047740 133.3034 227.2184 14.94938628586470
UWE-3                   
1 39446U 13066AG  24279.34134228  .00018143  00000+0  19118-2 0  9991
2 39446  97.7916 226.9121 0056559 215.1697 144.5782 14.88200346585668
BRITE-CA1 (TORONTO)     
1 40020U 14033L   24279.37993894  .00007698  00000+0  12190-2 0  9997
2 40020  97.8942  52.7674 0083238 100.1623 260.8985 14.70176191551168
DUCHIFAT-1              
1 40021U 14033M   24279.46750866  .00044493  00000+0  25396-2 0  9994
2 40021  98.0981 269.3933 0015118  88.1034 272.1926 15.12494061560765
NANOSATC-BR1            
1 40024U 14033Q   24279.17444022  .00037574  00000+0  24762-2 0  9997
2 40024  98.0743 256.1964 0007457 137.5608 222.6196 15.07366387560318
QB50P1                  
1 40025U 14033R   24278.41175904  .00024234  00000+0  18115-2 0  9998
2 40025  98.0540 243.0433 0012819 159.9792 200.1937 15.02712174559260
QB50P2                  
1 40032U 14033Y   24279.41405947  .00027641  00000+0  21443-2 0  9993
2 40032  98.0156 235.0062 0012030 110.8943 249.3569 15.01276859559719
PERSEUS-M2              
1 40037U 14033AD  24279.49658864  .00009727  00000+0  97508-3 0  9995
2 40037  97.9303 210.7535 0012578 182.6153 177.5002 14.91502732558766
PERSEUS-M1              
1 40039U 14033AF  24279.53653908  .00009981  00000+0  10045-2 0  9998
2 40039  97.9077 206.5268 0012389 182.2773 177.8391 14.91339341558630
POLYITAN-1              
1 40042U 14033AJ  24278.90764669  .00039651  00000+0  26517-2 0  9997
2 40042  98.0822 248.0555 0015229 116.3163 243.9629 15.06737453559331
TIGRISAT                
1 40043U 14033AK  24279.38141625  .00011739  00000+0  15139-2 0  9997
2 40043  97.7081  77.5140 0053225 304.9389  54.6829 14.80162247554050
AEROCUBE 6A             
1 40045U 14033AM  24279.46144142  .00025936  00000+0  29028-2 0  9991
2 40045  97.6771  88.8107 0047546 279.2318  80.3522 14.86027589554398
AEROCUBE 6B             
1 40046U 14033AN  24279.43063279  .00027163  00000+0  29736-2 0  9990
2 40046  97.6745  87.5890 0046062 274.0340  85.5611 14.86967291554596
CANX-4                  
1 40055U 14034C   24279.51391422  .00006810  00000+0  93246-3 0  9998
2 40055  98.3855 118.8752 0012877 193.7300 166.3561 14.78779057552885
CANX-5                  
1 40056U 14034D   24279.11237222  .00006841  00000+0  93659-3 0  9994
2 40056  98.3857 118.4658 0012850 195.3826 164.6995 14.78784679552823
UKUBE-1                 
1 40074U 14037F   24279.35781096  .00031546  00000+0  27332-2 0  9990
2 40074  98.3456 216.2911 0006395  76.8589 283.3344 14.97024484555241
BRITE-PL2 (HEWELIUSZ)   
1 40119U 14049B   24278.86127122  .00010018  00000+0  10408-2 0  9999
2 40119  97.8863  18.1252 0015373   7.3890 352.7551 14.90028944548908
AEROCUBE 5C             
1 40965U 15058B   24278.67724870  .00015649  00000+0  13472-2 0  9990
2 40965  64.7723  25.1385 0191694 275.2925  82.6338 14.84380758273281
AEROCUBE 7              
1 40966U 15058C   24278.67560980  .00018789  00000+0  15461-2 0  9999
2 40966  64.7698  17.8090 0185857 274.9339  83.0576 14.86650144273373
FOX-1A (AO-85)          
1 40967U 15058D   24278.78185715  .00016722  00000+0  14692-2 0  9991
2 40967  64.7789  39.0904 0190149 271.0196  86.9133 14.83798176 21247
SINOD-D 1               
1 40968U 15058E   24278.79484040  .00022387  00000+0  18713-2 0  9998
2 40968  64.7795  30.6783 0183833 270.0172  87.9874 14.86256478 24098
SNAP-3 ALICE            
1 40970U 15058G   24278.54672566  .00054826  00000+0  32865-2 0  9993
2 40970  64.7709 341.5289 0148298 268.6744  89.7381 15.01827169 22174
LMRST-SAT               
1 40971U 15058H   24278.89624942  .00017002  00000+0  14894-2 0  9994
2 40971  64.7791  34.2895 0191501 272.3866  85.5331 14.83730536 21265
SNAP-3 EDDIE            
1 40972U 15058J   24278.52921232  .00052447  00000+0  31065-2 0  9998
2 40972  64.7677 334.7628 0148583 269.6714  88.7377 15.02221991 24275
PROPCUBE 3              
1 40973U 15058K   24278.64550783  .00018658  00000+0  15620-2 0  9996
2 40973  64.7735  21.8061 0187758 273.8613  84.1049 14.85795836 22287
BISONSAT                
1 40974U 15058L   24279.50818773  .00034334  00000+0  23773-2 0  9996
2 40974  64.7689 349.1808 0165066 271.5544  86.6668 14.95058369 22230
SNAP-3 JIMI             
1 40975U 15058M   24279.21866880  .00028325  00000+0  21875-2 0  9991
2 40975  64.7715   6.2704 0178158 272.7697  85.3036 14.89700928 21406
PROPCUBE 1 (FLORA)      
1 40976U 15058N   24278.70732678  .00014887  00000+0  13581-2 0  9995
2 40976  64.7771  50.9066 0190029 273.7026  84.2370 14.82496926 24027
SINOD-D 3               
1 40977U 15058P   24278.94111858  .00021480  00000+0  18635-2 0  9995
2 40977  64.7762  42.3527 0183625 272.8609  85.1499 14.84949286 22312
HORYU-4                 
1 41340U 16012D   24279.43837353  .00044015  00000+0  18973-2 0  9995
2 41340  31.0022 334.7844 0007312  25.7986 334.3019 15.21348693474926
RAVAN                   
1 41849U 16067B   24279.09189288  .00035897  00000+0  17596-2 0  9996
2 41849  98.0651 103.5569 0012198  17.2316 342.9328 15.17979897432639
CELTEE 1                
1 41850U 16067C   24279.47598093  .00021449  00000+0  13583-2 0  9998
2 41850  98.1092  94.8836 0001426 138.8286 221.3049 15.08991244432043
